GSAT0222 (GALILEO 26)   
1 43565U 18060B   23234.82622588 -.00000072  00000+0  00000+0 0  9991
2 43565  57.2876   9.5385 0002988 204.5361 155.4569  1.70475798 31667
GSAT0219 (GALILEO 23)   
1 43566U 18060C   23233.28881733 -.00000075  00000+0  00000+0 0  9993
2 43566  57.2867   9.5818 0001252 259.9262 100.0640  1.70476123 31610
GSAT0220 (GALILEO 24)   
1 43567U 18060D   23232.92263259 -.00000076  00000+0  00000+0 0  9992
2 43567  57.2861   9.5927 0001565 251.2144 108.7721  1.70476072 31581
BEIDOU-3 M13            
1 43622U 18072A   23234.12199663 -.00000006  00000+0  00000+0 0  9991
2 43622  55.7600  96.9077 0004968 301.0692  58.9700  1.86231686 33475
BEIDOU-3 M14            
1 43623U 18072B   23233.98745423 -.00000006  00000+0  00000+0 0  9996
2 43623  55.7616  96.9049 0003576 343.5279  16.5489  1.86231679 33474
GPS BIII-1              
1 43873U 18109A   23234.60466478  .00000005  00000+0  00000+0 0  9992
2 43873  55.1889 132.8693 0025365 191.6545 281.4287  2.00568376 34373
METEOR-M2 2             
1 44387U 19038A   23235.49451565  .00000053  00000+0  42616-4 0  9991
2 44387  98.7814 199.2809 0002429  95.5772 264.5683 14.23799947214887
GPS BIII-2              
1 44506U 19056A   23233.53211637 -.00000074  00000+0  00000+0 0  9991
2 44506  55.8192  11.9877 0036332 184.3094 134.1830  2.00565520 29398
BEIDOU-3 M23            
1 44542U 19061A   23233.29233395  .00000077  00000+0  00000+0 0  9997
2 44542  54.4907 217.5345 0008330 335.8818  24.0643  1.86231493 26595
BEIDOU-3 M24            
1 44543U 19061B   23233.69065372  .00000081  00000+0  00000+0 0  9995
2 44543  54.4889 217.4906 0006028 318.6417 220.2360  1.86231862 26599
BEIDOU-3 M21            
1 44793U 19078A   23235.28544281 -.00000081  00000+0  00000+0 0  9999
2 44793  54.7649 335.7250 0004993  22.3471 337.7117  1.86232268 25490
BEIDOU-3 M22            
1 44794U 19078B   23235.41603950 -.00000081  00000+0  00000+0 0  9994
2 44794  54.7387 335.7027 0002888  16.8666 343.1801  1.86232681 25497
ELEKTRO-L 3             
1 44903U 19095A   23235.03088713 -.00000089  00000+0  00000+0 0  9995
2 44903   0.0580 306.9215 0001478 201.4818 269.8613  1.00271936 13373
GPS BIII-3              
1 45854U 20041A   23235.45625994 -.00000013  00000+0  00000+0 0  9995
2 45854  55.8716  69.1931 0035611 185.9703  25.2923  2.00563896 23397
COSMOS 2547             
1 46805U 20075A   23234.38781184  .00000096  00000+0  00000+0 0  9994
2 46805  64.6171 226.9391 0008746 243.9981 115.9239  2.13102998 21966
GPS BIII-4              
1 46826U 20078A   23235.42775321  .00000072  00000+0  00000+0 0  9996
2 46826  54.3181 252.5488 0035523 194.6931 331.4317  2.00562800 20866
GSAT0223 (GALILEO 27)   
1 49809U 21116A   23232.27028066 -.00000078  00000+0  00000+0 0  9998
2 49809  57.2774   9.5060 0003122 166.3846 243.5065  1.70476314 10588
GSAT0224 (GALILEO 28)   
1 49810U 21116B   23234.05275613 -.00000073  00000+0  00000+0 0  9995
2 49810  57.2794   9.4566 0002742 153.8000  22.5193  1.70476229 10630
GOES 18                 
1 51850U 22021A   23235.34682646  .00000105  00000+0  00000+0 0  9994
2 51850   0.0125 106.8686 0000538  13.6288 198.7217  1.00271179  5488
